SL-12 R/B(2)            
1 26486U 00051D   26114.57961258 -.00000018  00000+0  00000+0 0  9997
2 26486  63.2181 246.1317 6670648 278.1916  20.6560  1.45766424136462
ARIANE 5 R/B            
1 26496U 00054C   26115.30529615  .00000078  00000+0  93206-3 0  9999
2 26496   6.8386 240.3973 7175996 247.2899  26.3059  2.24229517209788
NSS-11                  
1 26554U 00059A   26116.52891757  .00000015  00000+0  00000+0 0  9990
2 26554   1.9951  81.9637 0002849 313.9164 185.0560  1.00272602 40776
SL-12 R/B(2)            
1 26557U 00059D   26115.53919242 -.00000058  00000+0  00000+0 0  9991
2 26557  15.2128  81.7772 5079491  57.2638  65.3749  1.86635973174288
USA 153                 
1 26575U 00065A   26115.66487973 -.00000334  00000+0  00000+0 0  9990
2 26575  11.5372  35.8520 0003631  29.1890 162.4690  1.00268969 32409
IABS R/B                
1 26577U 00065C   26115.99828318 -.00000082  00000+0  00000+0 0  9990
2 26577  13.9498   2.0177 0057086 281.0302  78.2872  1.01178057 25698
AMC-6                   
1 26580U 00067A   26116.53956377  .00000076  00000+0  00000+0 0  9996
2 26580   0.0760  69.2015 0003953 343.4570 221.1161  1.00274181 93375
SL-12 R/B(2)            
1 26583U 00067D   26116.25874134  .00000044  00000+0  00000+0 0  9993
2 26583  17.9598 275.7988 5540382   6.1533 358.4214  1.93857510180236
PHASE 3D (AO-40)        
1 26609U 00072B   26115.17202369 -.00000285  00000+0  00000+0 0  9991
2 26609   9.5037 359.1846 7934401 161.8495 265.2104  1.25588532116846
STRV 1C                 
1 26610U 00072C   26114.99481894  .00000102  00000+0  16127-3 0  9992
2 26610   6.9142  26.5652 7328723 147.2979 293.8910  2.03536992189005
STRV 1D                 
1 26611U 00072D   26109.14854465 -.00000128  00000+0 -17641-2 0  9993
2 26611   6.9019  29.6091 7331690 141.1332 305.7903  2.03398664 89289
ARIANE 5 R/B            
1 26612U 00072E   26116.24958779 -.00000075  00000+0  54874-2 0  9995
2 26612   6.8904  68.7271 7337122  60.9227 352.4143  2.01783926187587
ARIANE 5 DEB [SYLDA]    
1 26613U 00072F   26116.51298198  .00000153  00000+0  41090-2 0  9990
2 26613   6.9208  37.4700 7327629 125.4649  31.9295  2.03123653188262
SL-12 R/B(2)            
1 26629U 00077D   26112.24167862  .00000046  00000+0  00000+0 0  9995
2 26629  61.3111  79.1374 6624788 259.9813  24.8936  1.45598245134877
CHINASAT 31 (BEIDOU-1 *)
1 26643U 00082A   26115.46075875 -.00000146  00000+0  00000+0 0  9998
2 26643  12.5188  27.7146 0078064  85.8482  87.7041  0.99255682 51554
COSMOS 1285 DEB         
1 26680U 81071L   26115.91932857  .00000406  00000+0  78885-2 0  9995
2 26680  63.1812  14.3714 7406268  44.9856 354.9670  1.98346601206969
ARIANE 1 DEB            
1 26683U 85056H   26110.48340020 -.00000027  00000+0  72042-2 0  9996
2 26683   6.2114  10.8366 7089225 183.6286  17.9576  2.22749851109614
