[{"OBJECT_NAME":"SL-12 R/B(2)","OBJECT_ID":"2000-051D","EPOCH":"2026-04-24T13:54:38.526912","MEAN_MOTION":1.45766424,"ECCENTRICITY":0.66706489,"INCLINATION":63.2181,"RA_OF_ASC_NODE":246.1317,"ARG_OF_PERICENTER":278.1916,"MEAN_ANOMALY":20.656,"EPHEMERIS_TYPE":0,"CLASSIFICATION_TYPE":"U","NORAD_CAT_ID":26486,"ELEMENT_SET_NO":999,"REV_AT_EPOCH":13646,"BSTAR":0,"MEAN_MOTION_DOT":-1.8e-7,"MEAN_MOTION_DDOT":0},{"OBJECT_NAME":"ARIANE 5 R/B","OBJECT_ID":"2000-054C","EPOCH":"2026-04-25T07:19:37.587360","MEAN_MOTION":2.24229517,"ECCENTRICITY":0.71759965,"INCLINATION":6.8386,"RA_OF_ASC_NODE":240.3973,"ARG_OF_PERICENTER":247.2899,"MEAN_ANOMALY":26.3059,"EPHEMERIS_TYPE":0,"CLASSIFICATION_TYPE":"U","NORAD_CAT_ID":26496,"ELEMENT_SET_NO":999,"REV_AT_EPOCH":20978,"BSTAR":0.00093206142,"MEAN_MOTION_DOT":7.8e-7,"MEAN_MOTION_DDOT":0},{"OBJECT_NAME":"NSS-11","OBJECT_ID":"2000-059A","EPOCH":"2026-04-26T12:41:38.478048","MEAN_MOTION":1.00272602,"ECCENTRICITY":0.0002849,"INCLINATION":1.9951,"RA_OF_ASC_NODE":81.9637,"ARG_OF_PERICENTER":313.9164,"MEAN_ANOMALY":185.056,"EPHEMERIS_TYPE":0,"CLASSIFICATION_TYPE":"U","NORAD_CAT_ID":26554,"ELEMENT_SET_NO":999,"REV_AT_EPOCH":4077,"BSTAR":0,"MEAN_MOTION_DOT":1.5e-7,"MEAN_MOTION_DDOT":0},{"OBJECT_NAME":"SL-12 R/B(2)","OBJECT_ID":"2000-059D","EPOCH":"2026-04-25T12:56:26.225088","MEAN_MOTION":1.86635973,"ECCENTRICITY":0.50794914,"INCLINATION":15.2128,"RA_OF_ASC_NODE":81.7772,"ARG_OF_PERICENTER":57.2638,"MEAN_ANOMALY":65.3749,"EPHEMERIS_TYPE":0,"CLASSIFICATION_TYPE":"U","NORAD_CAT_ID":26557,"ELEMENT_SET_NO":999,"REV_AT_EPOCH":17428,"BSTAR":0,"MEAN_MOTION_DOT":-5.8e-7,"MEAN_MOTION_DDOT":0},{"OBJECT_NAME":"USA 153","OBJECT_ID":"2000-065A","EPOCH":"2026-04-25T15:57:25.608672","MEAN_MOTION":1.00268969,"ECCENTRICITY":0.00036311,"INCLINATION":11.5372,"RA_OF_ASC_NODE":35.852,"ARG_OF_PERICENTER":29.189,"MEAN_ANOMALY":162.469,"EPHEMERIS_TYPE":0,"CLASSIFICATION_TYPE":"U","NORAD_CAT_ID":26575,"ELEMENT_SET_NO":999,"REV_AT_EPOCH":3240,"BSTAR":0,"MEAN_MOTION_DOT":-3.34e-6,"MEAN_MOTION_DDOT":0},{"OBJECT_NAME":"IABS R/B","OBJECT_ID":"2000-065C","EPOCH":"2026-04-25T23:57:31.666752","MEAN_MOTION":1.01178057,"ECCENTRICITY":0.0057086,"INCLINATION":13.9498,"RA_OF_ASC_NODE":2.0177,"ARG_OF_PERICENTER":281.0302,"MEAN_ANOMALY":78.2872,"EPHEMERIS_TYPE":0,"CLASSIFICATION_TYPE":"U","NORAD_CAT_ID":26577,"ELEMENT_SET_NO":999,"REV_AT_EPOCH":2569,"BSTAR":0,"MEAN_MOTION_DOT":-8.2e-7,"MEAN_MOTION_DDOT":0},{"OBJECT_NAME":"AMC-6","OBJECT_ID":"2000-067A","EPOCH":"2026-04-26T12:56:58.309728","MEAN_MOTION":1.00274181,"ECCENTRICITY":0.0003953,"INCLINATION":0.076,"RA_OF_ASC_NODE":69.2015,"ARG_OF_PERICENTER":343.457,"MEAN_ANOMALY":221.1161,"EPHEMERIS_TYPE":0,"CLASSIFICATION_TYPE":"U","NORAD_CAT_ID":26580,"ELEMENT_SET_NO":999,"REV_AT_EPOCH":9337,"BSTAR":0,"MEAN_MOTION_DOT":7.6e-7,"MEAN_MOTION_DDOT":0},{"OBJECT_NAME":"SL-12 R/B(2)","OBJECT_ID":"2000-067D","EPOCH":"2026-04-26T06:12:35.251776","MEAN_MOTION":1.9385751,"ECCENTRICITY":0.5540382,"INCLINATION":17.9598,"RA_OF_ASC_NODE":275.7988,"ARG_OF_PERICENTER":6.1533,"MEAN_ANOMALY":358.4214,"EPHEMERIS_TYPE":0,"CLASSIFICATION_TYPE":"U","NORAD_CAT_ID":26583,"ELEMENT_SET_NO":999,"REV_AT_EPOCH":18023,"BSTAR":0,"MEAN_MOTION_DOT":4.4e-7,"MEAN_MOTION_DDOT":0},{"OBJECT_NAME":"PHASE 3D (AO-40)","OBJECT_ID":"2000-072B","EPOCH":"2026-04-25T04:07:42.846816","MEAN_MOTION":1.25588532,"ECCENTRICITY":0.79344012,"INCLINATION":9.5037,"RA_OF_ASC_NODE":359.1846,"ARG_OF_PERICENTER":161.8495,"MEAN_ANOMALY":265.2104,"EPHEMERIS_TYPE":0,"CLASSIFICATION_TYPE":"U","NORAD_CAT_ID":26609,"ELEMENT_SET_NO":999,"REV_AT_EPOCH":11684,"BSTAR":0,"MEAN_MOTION_DOT":-2.85e-6,"MEAN_MOTION_DDOT":0},{"OBJECT_NAME":"STRV 1C","OBJECT_ID":"2000-072C","EPOCH":"2026-04-24T23:52:32.356416","MEAN_MOTION":2.03536992,"ECCENTRICITY":0.73287238,"INCLINATION":6.9142,"RA_OF_ASC_NODE":26.5652,"ARG_OF_PERICENTER":147.2979,"MEAN_ANOMALY":293.891,"EPHEMERIS_TYPE":0,"CLASSIFICATION_TYPE":"U","NORAD_CAT_ID":26610,"ELEMENT_SET_NO":999,"REV_AT_EPOCH":18900,"BSTAR":0.00016126506,"MEAN_MOTION_DOT":1.02e-6,"MEAN_MOTION_DDOT":0},{"OBJECT_NAME":"STRV 1D","OBJECT_ID":"2000-072D","EPOCH":"2026-04-19T03:33:54.257760","MEAN_MOTION":2.03398664,"ECCENTRICITY":0.73316906,"INCLINATION":6.9019,"RA_OF_ASC_NODE":29.6091,"ARG_OF_PERICENTER":141.1332,"MEAN_ANOMALY":305.7903,"EPHEMERIS_TYPE":0,"CLASSIFICATION_TYPE":"U","NORAD_CAT_ID":26611,"ELEMENT_SET_NO":999,"REV_AT_EPOCH":8928,"BSTAR":-0.0017640714,"MEAN_MOTION_DOT":-1.28e-6,"MEAN_MOTION_DDOT":0},{"OBJECT_NAME":"ARIANE 5 R/B","OBJECT_ID":"2000-072E","EPOCH":"2026-04-26T05:59:24.385056","MEAN_MOTION":2.01783926,"ECCENTRICITY":0.7337122,"INCLINATION":6.8904,"RA_OF_ASC_NODE":68.7271,"ARG_OF_PERICENTER":60.9227,"MEAN_ANOMALY":352.4143,"EPHEMERIS_TYPE":0,"CLASSIFICATION_TYPE":"U","NORAD_CAT_ID":26612,"ELEMENT_SET_NO":999,"REV_AT_EPOCH":18758,"BSTAR":0.0054874,"MEAN_MOTION_DOT":-7.5e-7,"MEAN_MOTION_DDOT":0},{"OBJECT_NAME":"ARIANE 5 DEB [SYLDA]","OBJECT_ID":"2000-072F","EPOCH":"2026-04-26T12:18:41.643072","MEAN_MOTION":2.03123653,"ECCENTRICITY":0.7327629,"INCLINATION":6.9208,"RA_OF_ASC_NODE":37.47,"ARG_OF_PERICENTER":125.4649,"MEAN_ANOMALY":31.9295,"EPHEMERIS_TYPE":0,"CLASSIFICATION_TYPE":"U","NORAD_CAT_ID":26613,"ELEMENT_SET_NO":999,"REV_AT_EPOCH":18826,"BSTAR":0.004109,"MEAN_MOTION_DOT":1.53e-6,"MEAN_MOTION_DDOT":0},{"OBJECT_NAME":"SL-12 R/B(2)","OBJECT_ID":"2000-077D","EPOCH":"2026-04-22T05:48:01.032768","MEAN_MOTION":1.45598245,"ECCENTRICITY":0.66247884,"INCLINATION":61.3111,"RA_OF_ASC_NODE":79.1374,"ARG_OF_PERICENTER":259.9813,"MEAN_ANOMALY":24.8936,"EPHEMERIS_TYPE":0,"CLASSIFICATION_TYPE":"U","NORAD_CAT_ID":26629,"ELEMENT_SET_NO":999,"REV_AT_EPOCH":13487,"BSTAR":0,"MEAN_MOTION_DOT":4.6e-7,"MEAN_MOTION_DDOT":0},{"OBJECT_NAME":"CHINASAT 31 (BEIDOU-1 G2)","OBJECT_ID":"2000-082A","EPOCH":"2026-04-25T11:03:29.556000","MEAN_MOTION":0.99255682,"ECCENTRICITY":0.0078064,"INCLINATION":12.5188,"RA_OF_ASC_NODE":27.7146,"ARG_OF_PERICENTER":85.8482,"MEAN_ANOMALY":87.7041,"EPHEMERIS_TYPE":0,"CLASSIFICATION_TYPE":"U","NORAD_CAT_ID":26643,"ELEMENT_SET_NO":999,"REV_AT_EPOCH":5155,"BSTAR":0,"MEAN_MOTION_DOT":-1.46e-6,"MEAN_MOTION_DDOT":0},{"OBJECT_NAME":"COSMOS 1285 DEB","OBJECT_ID":"1981-071L","EPOCH":"2026-04-25T22:03:49.988448","MEAN_MOTION":1.98346601,"ECCENTRICITY":0.74062688,"INCLINATION":63.1812,"RA_OF_ASC_NODE":14.3714,"ARG_OF_PERICENTER":44.9856,"MEAN_ANOMALY":354.967,"EPHEMERIS_TYPE":0,"CLASSIFICATION_TYPE":"U","NORAD_CAT_ID":26680,"ELEMENT_SET_NO":999,"REV_AT_EPOCH":20696,"BSTAR":0.0078885128,"MEAN_MOTION_DOT":4.06e-6,"MEAN_MOTION_DDOT":0},{"OBJECT_NAME":"ARIANE 1 DEB","OBJECT_ID":"1985-056H","EPOCH":"2026-04-20T11:36:05.777280","MEAN_MOTION":2.22749851,"ECCENTRICITY":0.70892259,"INCLINATION":6.2114,"RA_OF_ASC_NODE":10.8366,"ARG_OF_PERICENTER":183.6286,"MEAN_ANOMALY":17.9576,"EPHEMERIS_TYPE":0,"CLASSIFICATION_TYPE":"U","NORAD_CAT_ID":26683,"ELEMENT_SET_NO":999,"REV_AT_EPOCH":10961,"BSTAR":0.0072042227,"MEAN_MOTION_DOT":-2.7e-7,"MEAN_MOTION_DDOT":0}]
